STARLINK-1764
1 46343U 20062U   26061.05915318  .00102813  00000+0  10239-2 0  9998
2 46343  53.0466 354.5678 0000833  14.7187 345.3851 15.64910105303957
STARLINK-1736
1 46585U 20070BF  26060.56786938  .00104726  00000+0  10414-2 0  9994
2 46585  53.0441 155.8963 0001504 145.1332 214.9781 15.64937701299086
